[{"OBJECT_NAME":"ONEWEB-0258","OBJECT_ID":"2021-060K","EPOCH":"2026-03-09T22:16:48.513792","MEAN_MOTION":13.16587429,"ECCENTRICITY":0.00015128,"INCLINATION":87.9011,"RA_OF_ASC_NODE":248.5239,"ARG_OF_PERICENTER":93.7316,"MEAN_ANOMALY":266.3988,"EPHEMERIS_TYPE":0,"CLASSIFICATION_TYPE":"U","NORAD_CAT_ID":48976,"ELEMENT_SET_NO":999,"REV_AT_EPOCH":22653,"BSTAR":0.0048981777,"MEAN_MOTION_DOT":1.886e-5,"MEAN_MOTION_DDOT":0},{"OBJECT_NAME":"COSMOS 203","OBJECT_ID":"1968-011A","EPOCH":"2026-03-09T23:04:05.773152","MEAN_MOTION":13.18301238,"ECCENTRICITY":0.00116371,"INCLINATION":74.0493,"RA_OF_ASC_NODE":242.7825,"ARG_OF_PERICENTER":100.2943,"MEAN_ANOMALY":14.0279,"EPHEMERIS_TYPE":0,"CLASSIFICATION_TYPE":"U","NORAD_CAT_ID":3129,"ELEMENT_SET_NO":999,"REV_AT_EPOCH":79290,"BSTAR":0.00051334584,"MEAN_MOTION_DOT":1.82e-6,"MEAN_MOTION_DDOT":0}]
